CCSDS_OMM_VERS = 2.0
CREATION_DATE  = 
ORIGINATOR     = 

OBJECT_NAME    = SL-16 R/B
OBJECT_ID      = 1992-093B
CENTER_NAME    = EARTH
REF_FRAME      = TEME
TIME_SYSTEM    = UTC
MEAN_ELEMENT_THEORY = SGP/SGP4

EPOCH          = 2025-11-19T11:50:18.305088
MEAN_MOTION    = 14.15428006
ECCENTRICITY   = .00022993
INCLINATION    = 71.0218
RA_OF_ASC_NODE = 235.5920
ARG_OF_PERICENTER = 140.8687
MEAN_ANOMALY   = 219.2603

EPHEMERIS_TYPE = 0
CLASSIFICATION_TYPE = U
NORAD_CAT_ID   = 22285
ELEMENT_SET_NO = 999
REV_AT_EPOCH   = 69756
BSTAR          = .41119821E-4
MEAN_MOTION_DOT = .33E-6
MEAN_MOTION_DDOT = 0

CCSDS_OMM_VERS = 2.0
CREATION_DATE  = 
ORIGINATOR     = 

OBJECT_NAME    = COSMOS 2228
OBJECT_ID      = 1992-094A
CENTER_NAME    = EARTH
REF_FRAME      = TEME
TIME_SYSTEM    = UTC
MEAN_ELEMENT_THEORY = SGP/SGP4

EPOCH          = 2025-11-19T13:22:50.383776
MEAN_MOTION    = 14.96579529
ECCENTRICITY   = .00168068
INCLINATION    = 82.5178
RA_OF_ASC_NODE = 342.7160
ARG_OF_PERICENTER = 316.6212
MEAN_ANOMALY   = 43.3686

EPHEMERIS_TYPE = 0
CLASSIFICATION_TYPE = U
NORAD_CAT_ID   = 22286
ELEMENT_SET_NO = 999
REV_AT_EPOCH   = 75958
BSTAR          = .19052256E-3
MEAN_MOTION_DOT = .2199E-4
MEAN_MOTION_DDOT = 0

CCSDS_OMM_VERS = 2.0
CREATION_DATE  = 
ORIGINATOR     = 

OBJECT_NAME    = SL-16 R/B
OBJECT_ID      = 1993-016B
CENTER_NAME    = EARTH
REF_FRAME      = TEME
TIME_SYSTEM    = UTC
MEAN_ELEMENT_THEORY = SGP/SGP4

EPOCH          = 2025-11-19T10:50:57.390432
MEAN_MOTION    = 14.15285705
ECCENTRICITY   = .00087083
INCLINATION    = 71.0073
RA_OF_ASC_NODE = 86.7111
ARG_OF_PERICENTER = 140.8060
MEAN_ANOMALY   = 219.3695

EPHEMERIS_TYPE = 0
CLASSIFICATION_TYPE = U
NORAD_CAT_ID   = 22566
ELEMENT_SET_NO = 999
REV_AT_EPOCH   = 68657
BSTAR          = .19276544E-3
MEAN_MOTION_DOT = .328E-5
MEAN_MOTION_DDOT = 0

CCSDS_OMM_VERS = 2.0
CREATION_DATE  = 
ORIGINATOR     = 

OBJECT_NAME    = COSMOS 2242
OBJECT_ID      = 1993-024A
CENTER_NAME    = EARTH
REF_FRAME      = TEME
TIME_SYSTEM    = UTC
MEAN_ELEMENT_THEORY = SGP/SGP4

EPOCH          = 2025-11-19T13:26:57.981120
MEAN_MOTION    = 14.95974205
ECCENTRICITY   = .00152877
INCLINATION    = 82.5210
RA_OF_ASC_NODE = 11.9972
ARG_OF_PERICENTER = 319.7315
MEAN_ANOMALY   = 40.2773

EPHEMERIS_TYPE = 0
CLASSIFICATION_TYPE = U
NORAD_CAT_ID   = 22626
ELEMENT_SET_NO = 999
REV_AT_EPOCH   = 76392
BSTAR          = .20687169E-3
MEAN_MOTION_DOT = .2348E-4
MEAN_MOTION_DDOT = 0

CCSDS_OMM_VERS = 2.0
CREATION_DATE  = 
ORIGINATOR     = 

OBJECT_NAME    = SL-16 R/B
OBJECT_ID      = 1993-059B
CENTER_NAME    = EARTH
REF_FRAME      = TEME
TIME_SYSTEM    = UTC
MEAN_ELEMENT_THEORY = SGP/SGP4

EPOCH          = 2025-11-19T12:15:14.965632
MEAN_MOTION    = 14.17208887
ECCENTRICITY   = .00165856
INCLINATION    = 70.9902
RA_OF_ASC_NODE = 243.4676
ARG_OF_PERICENTER = 10.1214
MEAN_ANOMALY   = 350.0240

EPHEMERIS_TYPE = 0
CLASSIFICATION_TYPE = U
NORAD_CAT_ID   = 22803
ELEMENT_SET_NO = 999
REV_AT_EPOCH   = 66392
BSTAR          = .2601278E-5
MEAN_MOTION_DOT = -.43E-6
MEAN_MOTION_DDOT = 0

CCSDS_OMM_VERS = 2.0
CREATION_DATE  = 
ORIGINATOR     = 

OBJECT_NAME    = ARIANE 40 R/B
OBJECT_ID      = 1993-061H
CENTER_NAME    = EARTH
REF_FRAME      = TEME
TIME_SYSTEM    = UTC
MEAN_ELEMENT_THEORY = SGP/SGP4

EPOCH          = 2025-11-19T10:24:03.434112
MEAN_MOTION    = 14.32780418
ECCENTRICITY   = .00097206
INCLINATION    = 98.5106
RA_OF_ASC_NODE = 29.3845
ARG_OF_PERICENTER = 247.9772
MEAN_ANOMALY   = 112.0380

EPHEMERIS_TYPE = 0
CLASSIFICATION_TYPE = U
NORAD_CAT_ID   = 22830
ELEMENT_SET_NO = 999
REV_AT_EPOCH   = 67831
BSTAR          = .13611803E-3
MEAN_MOTION_DOT = .328E-5
MEAN_MOTION_DDOT = 0

CCSDS_OMM_VERS = 2.0
CREATION_DATE  = 
ORIGINATOR     = 

OBJECT_NAME    = COSMOS 2278
OBJECT_ID      = 1994-023A
CENTER_NAME    = EARTH
REF_FRAME      = TEME
TIME_SYSTEM    = UTC
MEAN_ELEMENT_THEORY = SGP/SGP4

EPOCH          = 2025-11-19T14:54:11.244672
MEAN_MOTION    = 14.14344781
ECCENTRICITY   = .00096672
INCLINATION    = 71.0554
RA_OF_ASC_NODE = 45.3768
ARG_OF_PERICENTER = 209.5917
MEAN_ANOMALY   = 150.4659

EPHEMERIS_TYPE = 0
CLASSIFICATION_TYPE = U
NORAD_CAT_ID   = 23087
ELEMENT_SET_NO = 999
REV_AT_EPOCH   = 62924
BSTAR          = .22433256E-3
MEAN_MOTION_DOT = .382E-5
MEAN_MOTION_DDOT = 0

CCSDS_OMM_VERS = 2.0
CREATION_DATE  = 
ORIGINATOR     = 

OBJECT_NAME    = SL-16 R/B
OBJECT_ID      = 1994-023B
CENTER_NAME    = EARTH
REF_FRAME      = TEME
TIME_SYSTEM    = UTC
MEAN_ELEMENT_THEORY = SGP/SGP4

EPOCH          = 2025-11-19T08:44:30.487200
MEAN_MOTION    = 14.14991370
ECCENTRICITY   = .00011802
INCLINATION    = 70.9988
RA_OF_ASC_NODE = 302.5757
ARG_OF_PERICENTER = 140.1890
MEAN_ANOMALY   = 219.9320

EPHEMERIS_TYPE = 0
CLASSIFICATION_TYPE = U
NORAD_CAT_ID   = 23088
ELEMENT_SET_NO = 999
REV_AT_EPOCH   = 63048
BSTAR          = -.40058903E-4
MEAN_MOTION_DOT = -.125E-5
MEAN_MOTION_DDOT = 0

CCSDS_OMM_VERS = 2.0
CREATION_DATE  = 
ORIGINATOR     = 

OBJECT_NAME    = SL-16 R/B
OBJECT_ID      = 1994-074B
CENTER_NAME    = EARTH
REF_FRAME      = TEME
TIME_SYSTEM    = UTC
MEAN_ELEMENT_THEORY = SGP/SGP4

EPOCH          = 2025-11-19T13:24:08.327808
MEAN_MOTION    = 14.79251859
ECCENTRICITY   = .00057693
INCLINATION    = 97.7232
RA_OF_ASC_NODE = 353.7815
ARG_OF_PERICENTER = 208.9726
MEAN_ANOMALY   = 303.8936

EPHEMERIS_TYPE = 0
CLASSIFICATION_TYPE = U
NORAD_CAT_ID   = 23343
ELEMENT_SET_NO = 999
REV_AT_EPOCH   = 67096
BSTAR          = .86780337E-4
MEAN_MOTION_DOT = .596E-5
MEAN_MOTION_DDOT = 0

CCSDS_OMM_VERS = 2.0
CREATION_DATE  = 
ORIGINATOR     = 

OBJECT_NAME    = SL-16 R/B
OBJECT_ID      = 1994-077B
CENTER_NAME    = EARTH
REF_FRAME      = TEME
TIME_SYSTEM    = UTC
MEAN_ELEMENT_THEORY = SGP/SGP4

EPOCH          = 2025-11-19T04:14:42.107136
MEAN_MOTION    = 14.15547980
ECCENTRICITY   = .00043472
INCLINATION    = 70.9829
RA_OF_ASC_NODE = 224.9820
ARG_OF_PERICENTER = 303.4427
MEAN_ANOMALY   = 56.6279

EPHEMERIS_TYPE = 0
CLASSIFICATION_TYPE = U
NORAD_CAT_ID   = 23405
ELEMENT_SET_NO = 999
REV_AT_EPOCH   = 60059
BSTAR          = .15344905E-4
MEAN_MOTION_DOT = -.18E-6
MEAN_MOTION_DDOT = 0

CCSDS_OMM_VERS = 2.0
CREATION_DATE  = 
ORIGINATOR     = 

OBJECT_NAME    = ARIANE 40+ R/B
OBJECT_ID      = 1995-021B
CENTER_NAME    = EARTH
REF_FRAME      = TEME
TIME_SYSTEM    = UTC
MEAN_ELEMENT_THEORY = SGP/SGP4

EPOCH          = 2025-11-19T10:39:40.690944
MEAN_MOTION    = 14.39669939
ECCENTRICITY   = .00078664
INCLINATION    = 98.4681
RA_OF_ASC_NODE = 31.3115
ARG_OF_PERICENTER = 110.3986
MEAN_ANOMALY   = 259.5630

EPHEMERIS_TYPE = 0
CLASSIFICATION_TYPE = U
NORAD_CAT_ID   = 23561
ELEMENT_SET_NO = 999
REV_AT_EPOCH   = 60338
BSTAR          = .14667853E-3
MEAN_MOTION_DOT = .415E-5
MEAN_MOTION_DDOT = 0

CCSDS_OMM_VERS = 2.0
CREATION_DATE  = 
ORIGINATOR     = 

OBJECT_NAME    = SL-16 R/B
OBJECT_ID      = 1995-058B
CENTER_NAME    = EARTH
REF_FRAME      = TEME
TIME_SYSTEM    = UTC
MEAN_ELEMENT_THEORY = SGP/SGP4

EPOCH          = 2025-11-19T12:45:40.591584
MEAN_MOTION    = 14.15475629
ECCENTRICITY   = .00149901
INCLINATION    = 71.0228
RA_OF_ASC_NODE = 51.5282
ARG_OF_PERICENTER = 284.9228
MEAN_ANOMALY   = 75.0235

EPHEMERIS_TYPE = 0
CLASSIFICATION_TYPE = U
NORAD_CAT_ID   = 23705
ELEMENT_SET_NO = 999
REV_AT_EPOCH   = 55226
BSTAR          = -.89834042E-4
MEAN_MOTION_DOT = -.223E-5
MEAN_MOTION_DDOT = 0

