SL-16 R/B               
1 22285U 92093B   25323.49326742  .00000033  00000+0  41120-4 0  9991
2 22285  71.0218 235.5920 0002299 140.8687 219.2603 14.15428006697569
COSMOS 2228             
1 22286U 92094A   25323.55752759  .00002199  00000+0  19052-3 0  9994
2 22286  82.5178 342.7160 0016806 316.6212  43.3686 14.96579529759589
SL-16 R/B               
1 22566U 93016B   25323.45205313  .00000328  00000+0  19277-3 0  9999
2 22566  71.0073  86.7111 0008708 140.8060 219.3695 14.15285705686572
COSMOS 2242             
1 22626U 93024A   25323.56039330  .00002348  00000+0  20687-3 0  9992
2 22626  82.5210  11.9972 0015287 319.7315  40.2773 14.95974205763925
SL-16 R/B               
1 22803U 93059B   25323.51058988 -.00000043  00000+0  26013-5 0  9994
2 22803  70.9902 243.4676 0016585  10.1214 350.0240 14.17208887663926
ARIANE 40 R/B           
1 22830U 93061H   25323.43337308  .00000328  00000+0  13612-3 0  9998
2 22830  98.5106  29.3845 0009720 247.9772 112.0380 14.32780418678311
COSMOS 2278             
1 23087U 94023A   25323.62096348  .00000382  00000+0  22433-3 0  9990
2 23087  71.0554  45.3768 0009667 209.5917 150.4659 14.14344781629248
SL-16 R/B               
1 23088U 94023B   25323.36424175 -.00000125  00000+0 -40059-4 0  9997
2 23088  70.9988 302.5757 0001180 140.1890 219.9320 14.14991370630482
SL-16 R/B               
1 23343U 94074B   25323.55842972  .00000596  00000+0  86780-4 0  9998
2 23343  97.7232 353.7815 0005769 208.9726 303.8936 14.79251859670961
SL-16 R/B               
1 23405U 94077B   25323.17687624 -.00000018  00000+0  15345-4 0  9998
2 23405  70.9829 224.9820 0004347 303.4427  56.6279 14.15547980600598
ARIANE 40+ R/B          
1 23561U 95021B   25323.44422096  .00000415  00000+0  14668-3 0  9997
2 23561  98.4681  31.3115 0007866 110.3986 259.5630 14.39669939603383
SL-16 R/B               
1 23705U 95058B   25323.53171981 -.00000223  00000+0 -89834-4 0  9998
2 23705  71.0228  51.5282 0014990 284.9228  75.0235 14.15475629552266
